[
  {
    "name": "PLEIADES NEO 3",
    "line1": "1 48268U 21034A   26026.29991744  .00000544  00000+0  75788-4 0  9990",
    "line2": "2 48268  97.8937 103.1018 0001307  91.4646 268.6716 14.81676185256644",
    "catNr": 48268
  },
  {
    "name": "PLEIADES NEO 4",
    "line1": "1 49070U 21073E   26026.33365757 -.00000414  00000+0 -45952-4 0  9997",
    "line2": "2 49070  97.8936 103.1308 0001370  91.9508 268.1862 14.81671331240366",
    "catNr": 49070
  }
]